{
  "type": "FeatureCollection",
  "features": [
    {
      "type": "Feature",
      "properties": {
        "name": "GEX RIBEIRÃO PRETO",
        "type": "GEX",
        "url":"https://inssgov.sharepoint.com/sites/MinhaLog-SP/Lists/Unidades%20por%20GEX/AllItems.aspx?viewid=2f977009%2D7bd9%2D4063%2Da236%2D1f367e7975ed"
      },
      "geometry": {
        "type": "Point",
        "coordinates": [
         	-47.81092,-21.1746
        ]
      }
    },
      {
      "type": "Feature",
      "properties": {
        "name": "APS BATATAIS",
        "type": "APS FIXA",
        "url":"https://inssgov.sharepoint.com/sites/MinhaLog-SP/Lists/Unidades%20por%20GEX/AllItems.aspx?viewid=2f977009%2D7bd9%2D4063%2Da236%2D1f367e7975ed"
      },
      "geometry": {
        "type": "Point",
        "coordinates": [
         	-47.593127, -20.888254
        ]
      }
    },
     {
      "type": "Feature",
      "properties": {
        "name": "APS FRANCA",
        "type": "APS FIXA",
        "url":"https://inssgov.sharepoint.com/sites/MinhaLog-SP/Lists/Unidades%20por%20GEX/AllItems.aspx?viewid=2f977009%2D7bd9%2D4063%2Da236%2D1f367e7975ed"
      },
      "geometry": {
        "type": "Point",
        "coordinates": [
         	-47.40382750779927,-20.536281080470577
        ]
      }
    },
     {
      "type": "Feature",
      "properties": {
        "name": "APS ITUVERAVA",
        "type": "APS FIXA",
        "url":"https://inssgov.sharepoint.com/sites/MinhaLog-SP/Lists/Unidades%20por%20GEX/AllItems.aspx?viewid=2f977009%2D7bd9%2D4063%2Da236%2D1f367e7975ed"
      },
      "geometry": {
        "type": "Point",
        "coordinates": [
         		-47.787001,	-20.334429
        ]
      }
    },
    {
      "type": "Feature",
      "properties": {
        "name": "APS ORLÂNDIA",
        "type": "APS FIXA",
        "url":"https://inssgov.sharepoint.com/sites/MinhaLog-SP/Lists/Unidades%20por%20GEX/AllItems.aspx?viewid=2f977009%2D7bd9%2D4063%2Da236%2D1f367e7975ed"
      },
      "geometry": {
        "type": "Point",
        "coordinates": [
         	-47.885326,	-20.721417
        ]
      }
    },
    {
      "type": "Feature",
      "properties": {
        "name": "APS RIBEIRÃO PRETO",
        "type": "APS FIXA",
        "url":"https://inssgov.sharepoint.com/sites/MinhaLog-SP/Lists/Unidades%20por%20GEX/AllItems.aspx?viewid=2f977009%2D7bd9%2D4063%2Da236%2D1f367e7975ed"
      },
      "geometry": {
        "type": "Point",
        "coordinates": [
         	-47.797163,	-21.158116
        ]
      }
    },
    {
      "type": "Feature",
      "properties": {
        "name": "APS SÃO JOAQUIM DA BARRA",
        "type": "APS FIXA",
        "url":"https://inssgov.sharepoint.com/sites/MinhaLog-SP/Lists/Unidades%20por%20GEX/AllItems.aspx?viewid=2f977009%2D7bd9%2D4063%2Da236%2D1f367e7975ed"
      },
      "geometry": {
        "type": "Point",
        "coordinates": [
         	-47.864216,-20.585358
        ]
      }
    },
    {
      "type": "Feature",
      "properties": {
        "name": "APS SERTÃOZINHO/SP",
        "type": "APS FIXA",
        "url":"https://inssgov.sharepoint.com/sites/MinhaLog-SP/Lists/Unidades%20por%20GEX/AllItems.aspx?viewid=2f977009%2D7bd9%2D4063%2Da236%2D1f367e7975ed"
      },
      "geometry": {
        "type": "Point",
        "coordinates": [
         	-47.984946,	-21.140716
        ]
      }
    },
    {
      "type": "Feature",
      "properties": {
        "name": "APS SÃO SIMÃO/SP",
        "type": "APS FIXA",
        "url":"https://inssgov.sharepoint.com/sites/MinhaLog-SP/Lists/Unidades%20por%20GEX/AllItems.aspx?viewid=2f977009%2D7bd9%2D4063%2Da236%2D1f367e7975ed"
      },
      "geometry": {
        "type": "Point",
        "coordinates": [
         	-47.558588,	-21.477096
        ]
      }
    },
    {
      "type": "Feature",
      "properties": {
        "name": "APS SERRANA",
        "type": "APS FIXA",
        "url":"https://inssgov.sharepoint.com/sites/MinhaLog-SP/Lists/Unidades%20por%20GEX/AllItems.aspx?viewid=2f977009%2D7bd9%2D4063%2Da236%2D1f367e7975ed"
      },
      "geometry": {
        "type": "Point",
        "coordinates": [
         	-47.606405,	-21.206404
        ]
      }
    },
    {
      "type": "Feature",
      "properties": {
        "name": "APS RIBEIRÃO PRETO - AMADOR BUENO",
        "type": "APS FIXA",
        "url":"https://inssgov.sharepoint.com/sites/MinhaLog-SP/Lists/Unidades%20por%20GEX/AllItems.aspx?viewid=2f977009%2D7bd9%2D4063%2Da236%2D1f367e7975ed"
      },
      "geometry": {
        "type": "Point",
        "coordinates": [
         	-47.81086,	-21.17476
        ]
      }
    },
    {
      "type": "Feature",
      "properties": {
        "name": "APS MORRO AGUDO",
        "type": "APS FIXA",
        "url":"https://inssgov.sharepoint.com/sites/MinhaLog-SP/Lists/Unidades%20por%20GEX/AllItems.aspx?viewid=2f977009%2D7bd9%2D4063%2Da236%2D1f367e7975ed"
      },
      "geometry": {
        "type": "Point",
        "coordinates": [
         		-48.054086,	-20.730135
        ]
      }
    },
    {
      "type": "Feature",
      "properties": {
        "name": "APS CRAVINHOS",
        "type": "APS FIXA",
        "url":"https://inssgov.sharepoint.com/sites/MinhaLog-SP/Lists/Unidades%20por%20GEX/AllItems.aspx?viewid=2f977009%2D7bd9%2D4063%2Da236%2D1f367e7975ed"
      },
      "geometry": {
        "type": "Point",
        "coordinates": [
         		-47.737065,	-21.342347
        ]
      }
    },
    {
      "type": "Feature",
      "properties": {
        "name": "APS CAJURU",
        "type": "APS FIXA",
        "url":"https://inssgov.sharepoint.com/sites/MinhaLog-SP/Lists/Unidades%20por%20GEX/AllItems.aspx?viewid=2f977009%2D7bd9%2D4063%2Da236%2D1f367e7975ed"
      },
      "geometry": {
        "type": "Point",
        "coordinates": [
         		-47.297625,	-21.275807
        ]
      }
    },
    {
      "type": "Feature",
      "properties": {
        "name": "APS RIBEIRÃO PRETO - DIGITAL",
        "type": "APS FIXA",
        "url":"https://inssgov.sharepoint.com/sites/MinhaLog-SP/Lists/Unidades%20por%20GEX/AllItems.aspx?viewid=2f977009%2D7bd9%2D4063%2Da236%2D1f367e7975ed"
      },
      "geometry": {
        "type": "Point",
        "coordinates": [
         	-47.81086,	-21.174601
        ]
      }
    }   

  ]
}