{
  "type": "FeatureCollection",
  "features": [
    {
      "type": "Feature",
      "properties": {
        "name": "GEX PIRACICABA",
        "type": "GEX",
        "url":"https://inssgov.sharepoint.com/sites/MinhaLog-SP/Lists/Unidades%20por%20GEX/AllItems.aspx?viewid=78caa14a%2Df202%2D4e27%2Da573%2Dc3f0e814e208"
      },
      "geometry": {
        "type": "Point",
        "coordinates": [
          	-47.629594,	-22.727869
        ]
      }
    },
    {
      "type": "Feature",
      "properties": {
        "name": "APS ARARAS",
        "type": "APS FIXA",
        "url":"https://inssgov.sharepoint.com/sites/MinhaLog-SP/Lists/Unidades%20por%20GEX/AllItems.aspx?viewid=78caa14a%2Df202%2D4e27%2Da573%2Dc3f0e814e208"
      },
      "geometry": {
        "type": "Point",
        "coordinates": [
          	-47.389371,	-22.356031
        ]
      }
    },
    {
      "type": "Feature",
      "properties": {
        "name": "APS CAPIVARI",
        "type": "APS FIXA",
        "url":"https://inssgov.sharepoint.com/sites/MinhaLog-SP/Lists/Unidades%20por%20GEX/AllItems.aspx?viewid=78caa14a%2Df202%2D4e27%2Da573%2Dc3f0e814e208"
      },
      "geometry": {
        "type": "Point",
        "coordinates": [
          	-47.505051,	-22.997211
        ]
      }
    },
    {
      "type": "Feature",
      "properties": {
        "name": "APS LIMEIRA",
        "type": "APS FIXA",
        "url":"https://inssgov.sharepoint.com/sites/MinhaLog-SP/Lists/Unidades%20por%20GEX/AllItems.aspx?viewid=78caa14a%2Df202%2D4e27%2Da573%2Dc3f0e814e208"
      },
      "geometry": {
        "type": "Point",
        "coordinates": [
          	-47.400171,-22.569181
        ]
      }
    },
    {
      "type": "Feature",
      "properties": {
        "name": "APS PIRACICABA",
        "type": "APS FIXA",
        "url":"https://inssgov.sharepoint.com/sites/MinhaLog-SP/Lists/Unidades%20por%20GEX/AllItems.aspx?viewid=78caa14a%2Df202%2D4e27%2Da573%2Dc3f0e814e208"
      },
      "geometry": {
        "type": "Point",
        "coordinates": [
          	-47.649201,-22.726431
        ]
      }
    },
    {
      "type": "Feature",
      "properties": {
        "name": "APS RIO CLARO/SP",
        "type": "APS FIXA",
        "url":"https://inssgov.sharepoint.com/sites/MinhaLog-SP/Lists/Unidades%20por%20GEX/AllItems.aspx?viewid=78caa14a%2Df202%2D4e27%2Da573%2Dc3f0e814e208"
      },
      "geometry": {
        "type": "Point",
        "coordinates": [
          		-47.559681,	-22.410361
        ]
      }
    },
    {
      "type": "Feature",
      "properties": {
        "name": "APS TIETÊ",
        "type": "APS FIXA",
        "url":"https://inssgov.sharepoint.com/sites/MinhaLog-SP/Lists/Unidades%20por%20GEX/AllItems.aspx?viewid=78caa14a%2Df202%2D4e27%2Da573%2Dc3f0e814e208"
      },
      "geometry": {
        "type": "Point",
        "coordinates": [
          	-47.714246,	-23.098842
        ]
      }
    },
    {
      "type": "Feature",
      "properties": {
        "name": "APS ARTUR NOGUEIRA",
        "type": "APS FIXA",
        "url":"https://inssgov.sharepoint.com/sites/MinhaLog-SP/Lists/Unidades%20por%20GEX/AllItems.aspx?viewid=78caa14a%2Df202%2D4e27%2Da573%2Dc3f0e814e208"
      },
      "geometry": {
        "type": "Point",
        "coordinates": [
          -47.158521,	-22.573411
        ]
      }
    },
    {
      "type": "Feature",
      "properties": {
        "name": "APS LARANJAL PAULISTA",
        "type": "APS FIXA",
        "url":"https://inssgov.sharepoint.com/sites/MinhaLog-SP/Lists/Unidades%20por%20GEX/AllItems.aspx?viewid=78caa14a%2Df202%2D4e27%2Da573%2Dc3f0e814e208"
      },
      "geometry": {
        "type": "Point",
        "coordinates": [
          -47.825391,	-23.050241
        ]
      }
    },
    {
      "type": "Feature",
      "properties": {
        "name": "APS RIO DAS PEDRAS",
        "type": "APS FIXA",
        "url":"https://inssgov.sharepoint.com/sites/MinhaLog-SP/Lists/Unidades%20por%20GEX/AllItems.aspx?viewid=78caa14a%2Df202%2D4e27%2Da573%2Dc3f0e814e208"
      },
      "geometry": {
        "type": "Point",
        "coordinates": [
          -47.607691,	-22.837851
        ]
      }
    },
    {
      "type": "Feature",
      "properties": {
        "name": "APS SÃO PEDRO/SP",
        "type": "APS FIXA",
        "url":"https://inssgov.sharepoint.com/sites/MinhaLog-SP/Lists/Unidades%20por%20GEX/AllItems.aspx?viewid=78caa14a%2Df202%2D4e27%2Da573%2Dc3f0e814e208"
      },
      "geometry": {
        "type": "Point",
        "coordinates": [
          -47.904681,-22.551841
        ]
      }
    },
    {
      "type": "Feature",
      "properties": {
        "name": "APS CERQUILHO",
        "type": "APS FIXA",
        "url":"https://inssgov.sharepoint.com/sites/MinhaLog-SP/Lists/Unidades%20por%20GEX/AllItems.aspx?viewid=78caa14a%2Df202%2D4e27%2Da573%2Dc3f0e814e208"
      },
      "geometry": {
        "type": "Point",
        "coordinates": [
          	-47.745731,	-23.152701
        ]
      }
    },
    {
      "type": "Feature",
      "properties": {
        "name": "APS CONCHAL",
        "type": "APS FIXA",
        "url":"https://inssgov.sharepoint.com/sites/MinhaLog-SP/Lists/Unidades%20por%20GEX/AllItems.aspx?viewid=78caa14a%2Df202%2D4e27%2Da573%2Dc3f0e814e208"
      },
      "geometry": {
        "type": "Point",
        "coordinates": [
          	-47.167799,	-22.335931
        ]
      }
    }
  ]
}