{
  "type": "FeatureCollection",
  "features": [
    {
      "type": "Feature",
      "properties": {
        "name": "GEX JUNDIAÍ ",
        "type": "GEX",
        "url": "https://inssgov.sharepoint.com/sites/MinhaLog-SP/Lists/Unidades%20por%20GEX/AllItems.aspx?viewid=205689d2%2D8d1d%2D44a0%2D9f17%2D60dd99c27376"
      },
      "geometry": {
        "type": "Point",
        "coordinates": [
         	-46.886403,	-23.184998
        ]
      }
    },
    {
      "type": "Feature",
      "properties": {
        "name": "APS AMPARO/SP ",
        "type": "APS FIXA",
        "url": "https://inssgov.sharepoint.com/sites/MinhaLog-SP/Lists/Unidades%20por%20GEX/AllItems.aspx?viewid=205689d2%2D8d1d%2D44a0%2D9f17%2D60dd99c27376"
      },
      "geometry": {
        "type": "Point",
        "coordinates": [
         	-46.77004,-22.701039
        ]
      }
    },
    {
      "type": "Feature",
      "properties": {
        "name": "APS ATIBAIA",
        "type": "APS FIXA",
        "url": "https://inssgov.sharepoint.com/sites/MinhaLog-SP/Lists/Unidades%20por%20GEX/AllItems.aspx?viewid=205689d2%2D8d1d%2D44a0%2D9f17%2D60dd99c27376"
      },
      "geometry": {
        "type": "Point",
        "coordinates": [
         	-46.548028,-23.114255
        ]
      }
    },
    {
      "type": "Feature",
      "properties": {
        "name": "APS BRAGANÇA PAULISTA",
        "type": "APS FIXA",
        "url": "https://inssgov.sharepoint.com/sites/MinhaLog-SP/Lists/Unidades%20por%20GEX/AllItems.aspx?viewid=205689d2%2D8d1d%2D44a0%2D9f17%2D60dd99c27376"
      },
      "geometry": {
        "type": "Point",
        "coordinates": [
         	-46.541035,-22.958393
        ]
      }
    },
    {
      "type": "Feature",
      "properties": {
        "name": "APS ITATIBA",
        "type": "APS FIXA",
        "url": "https://inssgov.sharepoint.com/sites/MinhaLog-SP/Lists/Unidades%20por%20GEX/AllItems.aspx?viewid=205689d2%2D8d1d%2D44a0%2D9f17%2D60dd99c27376"  
      },
      "geometry": {
        "type": "Point",
        "coordinates": [
         	-46.837868,-23.006186
        ]
      }
    },
    {
      "type": "Feature",
      "properties": {
        "name": "APS JUNDIAÍ - ELOY CHAVES",
        "type": "APS FIXA",
        "url": "https://inssgov.sharepoint.com/sites/MinhaLog-SP/Lists/Unidades%20por%20GEX/AllItems.aspx?viewid=205689d2%2D8d1d%2D44a0%2D9f17%2D60dd99c27376"
      },
      "geometry": {
        "type": "Point",
        "coordinates": [
         		-46.886579,	-23.184829
        ]
      }
    },
    {
      "type": "Feature",
      "properties": {
        "name": "APS ESTÂNCIA DE SOCORRO",
        "type": "APS FIXA",
        "url": "https://inssgov.sharepoint.com/sites/MinhaLog-SP/Lists/Unidades%20por%20GEX/AllItems.aspx?viewid=205689d2%2D8d1d%2D44a0%2D9f17%2D60dd99c27376"
      },
      "geometry": {
        "type": "Point",
        "coordinates": [
         			-46.528673,	-22.590643
        ]
      }
    },
    {
      "type": "Feature",
      "properties": {
        "name": "APS VÁRZEA PAULISTA",
        "type": "APS FIXA",
        "url": "https://inssgov.sharepoint.com/sites/MinhaLog-SP/Lists/Unidades%20por%20GEX/AllItems.aspx?viewid=205689d2%2D8d1d%2D44a0%2D9f17%2D60dd99c27376"
      },
      "geometry": {
        "type": "Point",
        "coordinates": [
         	-46.828612,	-23.209517
        ]
      }
    },
    {
      "type": "Feature",
      "properties": {
        "name": "APS JARINU",
        "type": "APS FIXA",
        "url": "https://inssgov.sharepoint.com/sites/MinhaLog-SP/Lists/Unidades%20por%20GEX/AllItems.aspx?viewid=205689d2%2D8d1d%2D44a0%2D9f17%2D60dd99c27376"
      },
      "geometry": {
        "type": "Point",
        "coordinates": [
         	-46.728278,	-23.105373
        ]
      }
    },
    {
      "type": "Feature",
      "properties": {
        "name": "APS CAMPO LIMPO PAULISTA",
        "type": "APS FIXA",
        "url": "https://inssgov.sharepoint.com/sites/MinhaLog-SP/Lists/Unidades%20por%20GEX/AllItems.aspx?viewid=205689d2%2D8d1d%2D44a0%2D9f17%2D60dd99c27376"
      },
      "geometry": {
        "type": "Point",
        "coordinates": [
         		-46.787805,	-23.1995
        ]
      }
    },
    {
      "type": "Feature",
      "properties": {
        "name": "APS FRANCO DA ROCHA",
        "type": "APS FIXA",
        "url": "https://inssgov.sharepoint.com/sites/MinhaLog-SP/Lists/Unidades%20por%20GEX/AllItems.aspx?viewid=205689d2%2D8d1d%2D44a0%2D9f17%2D60dd99c27376"
      },
      "geometry": {
        "type": "Point",
        "coordinates": [
         			-46.721452,	-23.315418
        ]
      }
    },
        {
      "type": "Feature",
      "properties": {
        "name": "APS SOCIAL DIGITAL JUNDIAÍ",
        "type": "APS FIXA",
        "url": "https://inssgov.sharepoint.com/sites/MinhaLog-SP/Lists/Unidades%20por%20GEX/AllItems.aspx?viewid=205689d2%2D8d1d%2D44a0%2D9f17%2D60dd99c27376"
      },
      "geometry": {
        "type": "Point",
        "coordinates": [
         	-46.886369732789376,-23.18511678730532 
        ]
      }
    }
  ]
}