{
  "type": "FeatureCollection",
  "features": [
    {
      "type": "Feature",
      "properties": {
        "name": "GEX OSASCO",
        "type": "GEX",
        "url":"https://inssgov.sharepoint.com/sites/MinhaLog-SP/Lists/Unidades%20por%20GEX/AllItems.aspx?viewid=e99ad6f2%2Df3e0%2D4e52%2D9bd3%2Ddb32b1c73765"
      },
      "geometry": {
        "type": "Point",
        "coordinates": [
         	-46.787835,	-23.519955
        ]
      }
    },
    {
      "type": "Feature",
      "properties": {
        "name": "APS COTIA",
        "type": "APS FIXA",
        "url":"https://inssgov.sharepoint.com/sites/MinhaLog-SP/Lists/Unidades%20por%20GEX/AllItems.aspx?viewid=e99ad6f2%2Df3e0%2D4e52%2D9bd3%2Ddb32b1c73765"
      },
      "geometry": {
        "type": "Point",
        "coordinates": [
         	-46.925099,	-23.607594
        ]
      }
    },
    {
      "type": "Feature",
      "properties": {
        "name": "APS OSASCO",
        "type": "APS FIXA",
        "url":"https://inssgov.sharepoint.com/sites/MinhaLog-SP/Lists/Unidades%20por%20GEX/AllItems.aspx?viewid=e99ad6f2%2Df3e0%2D4e52%2D9bd3%2Ddb32b1c73765"
      },
      "geometry": {
        "type": "Point",
        "coordinates": [
         	-46.78790082411742,-23.520134349815834
        ]
      }
    },
    {
      "type": "Feature",
      "properties": {
        "name": "APS BARUERI",
        "type": "APS FIXA",
        "url":"https://inssgov.sharepoint.com/sites/MinhaLog-SP/Lists/Unidades%20por%20GEX/AllItems.aspx?viewid=e99ad6f2%2Df3e0%2D4e52%2D9bd3%2Ddb32b1c73765"
      },
      "geometry": {
        "type": "Point",
        "coordinates": [
         		-46.88859,-23.510276
        ]
      }
    },
    {
      "type": "Feature",
      "properties": {
        "name": "APS SANTANA DE PARNAÍBA",
        "type": "APS FIXA",
        "url":"https://inssgov.sharepoint.com/sites/MinhaLog-SP/Lists/Unidades%20por%20GEX/AllItems.aspx?viewid=e99ad6f2%2Df3e0%2D4e52%2D9bd3%2Ddb32b1c73765"
      },
      "geometry": {
        "type": "Point",
        "coordinates": [
         	-46.918475,-23.443808
        ]
      }
    },
    {
      "type": "Feature",
      "properties": {
        "name": "APS CARAPICUÍBA",
        "type": "APS FIXA",
        "url":"https://inssgov.sharepoint.com/sites/MinhaLog-SP/Lists/Unidades%20por%20GEX/AllItems.aspx?viewid=e99ad6f2%2Df3e0%2D4e52%2D9bd3%2Ddb32b1c73765"
      },
      "geometry": {
        "type": "Point",
        "coordinates": [
         	-46.83522,-23.529026
        ]
      }
    },
    {
      "type": "Feature",
      "properties": {
        "name": "APS ITAPEVI",
        "type": "APS FIXA",
        "url":"https://inssgov.sharepoint.com/sites/MinhaLog-SP/Lists/Unidades%20por%20GEX/AllItems.aspx?viewid=e99ad6f2%2Df3e0%2D4e52%2D9bd3%2Ddb32b1c73765"
      },
      "geometry": {
        "type": "Point",
        "coordinates": [
         	-46.939539403192065,-23.551049773289833
        ]
      }
    },
    {
      "type": "Feature",
      "properties": {
        "name": "APS VARGEM GRANDE PAULISTA",
        "type": "APS FIXA",
        "url":"https://inssgov.sharepoint.com/sites/MinhaLog-SP/Lists/Unidades%20por%20GEX/AllItems.aspx?viewid=e99ad6f2%2Df3e0%2D4e52%2D9bd3%2Ddb32b1c73765"
      },
      "geometry": {
        "type": "Point",
        "coordinates": [
         		-47.026741,	-23.611816
        ]
      }
    }
  ]
}