{
  "type": "FeatureCollection",
  "features": [
    {
      "type": "Feature",
      "properties": {
        "name": "GEX PRESIDENTE PRUDENTE",
        "type": "GEX",
        "url":"https://inssgov.sharepoint.com/sites/MinhaLog-SP/Lists/Unidades%20por%20GEX/AllItems.aspx?viewid=61898d0d%2D10f5%2D4338%2Dbf8c%2D3114a964b036"
      },
      "geometry": {
        "type": "Point",
        "coordinates": [
         	-51.386371,	-22.122794
        ]
      }
    },
    {
      "type": "Feature",
      "properties": {
        "name": "APS ADAMANTINA",
        "type": "APS FIXA",
        "url":"https://inssgov.sharepoint.com/sites/MinhaLog-SP/Lists/Unidades%20por%20GEX/AllItems.aspx?viewid=61898d0d%2D10f5%2D4338%2Dbf8c%2D3114a964b036"
      },
      "geometry": {
        "type": "Point",
        "coordinates": [
         	-51.07286,-21.69031
        ]
      }
    },
    {
      "type": "Feature",
      "properties": {
        "name": "APS DRACENA",
        "type": "APS FIXA",
        "url":"https://inssgov.sharepoint.com/sites/MinhaLog-SP/Lists/Unidades%20por%20GEX/AllItems.aspx?viewid=61898d0d%2D10f5%2D4338%2Dbf8c%2D3114a964b036"
      },
      "geometry": {
        "type": "Point",
        "coordinates": [
         		-51.53092,-21.48854
        ]
      }
    },
    {
      "type": "Feature",
      "properties": {
        "name": "APS PRESIDENTE EPITÁCIO",
        "type": "APS FIXA",
        "url":"https://inssgov.sharepoint.com/sites/MinhaLog-SP/Lists/Unidades%20por%20GEX/AllItems.aspx?viewid=61898d0d%2D10f5%2D4338%2Dbf8c%2D3114a964b036"
      },
      "geometry": {
        "type": "Point",
        "coordinates": [
         		-52.10665,-21.76677
        ]
      }
    },
    {
      "type": "Feature",
      "properties": {
        "name": "APS PRESIDENTE PRUDENTE",
        "type": "APS FIXA",
        "url":"https://inssgov.sharepoint.com/sites/MinhaLog-SP/Lists/Unidades%20por%20GEX/AllItems.aspx?viewid=61898d0d%2D10f5%2D4338%2Dbf8c%2D3114a964b036"
      },
      "geometry": {
        "type": "Point",
        "coordinates": [
         	-51.38972,-22.12953
        ]
      }
    },
    {
      "type": "Feature",
      "properties": {
        "name": "APS PRESIDENTE VENCESLAU",
        "type": "APS FIXA",
        "url":"https://inssgov.sharepoint.com/sites/MinhaLog-SP/Lists/Unidades%20por%20GEX/AllItems.aspx?viewid=61898d0d%2D10f5%2D4338%2Dbf8c%2D3114a964b036"
      },
      "geometry": {
        "type": "Point",
        "coordinates": [
         	-51.84657,-21.87698
        ]
      }
    },
    {
      "type": "Feature",
      "properties": {
        "name": "APS RANCHARIA",
        "type": "APS FIXA",
        "url":"https://inssgov.sharepoint.com/sites/MinhaLog-SP/Lists/Unidades%20por%20GEX/AllItems.aspx?viewid=61898d0d%2D10f5%2D4338%2Dbf8c%2D3114a964b036"
      },
      "geometry": {
        "type": "Point",
        "coordinates": [
         		-50.89392,-22.22678
        ]
      }
    },
    {
      "type": "Feature",
      "properties": {
        "name": "APS ROSANA",
        "type": "APS FIXA",
        "url":"https://inssgov.sharepoint.com/sites/MinhaLog-SP/Lists/Unidades%20por%20GEX/AllItems.aspx?viewid=61898d0d%2D10f5%2D4338%2Dbf8c%2D3114a964b036"
      },
      "geometry": {
        "type": "Point",
        "coordinates": [
         		-53.05697,-22.57784
        ]
      }
    },
    {
      "type": "Feature",
      "properties": {
        "name": "APS MARTINOPÓLIS",
        "type": "APS FIXA",
        "url":"https://inssgov.sharepoint.com/sites/MinhaLog-SP/Lists/Unidades%20por%20GEX/AllItems.aspx?viewid=61898d0d%2D10f5%2D4338%2Dbf8c%2D3114a964b036"
      },
      "geometry": {
        "type": "Point",
        "coordinates": [
         		-51.17433,-22.14707
        ]
      }
    },
    {
      "type": "Feature",
      "properties": {
        "name": "APS TEODORO SAMPAIO/SP",
        "type": "APS FIXA",
        "url":"https://inssgov.sharepoint.com/sites/MinhaLog-SP/Lists/Unidades%20por%20GEX/AllItems.aspx?viewid=61898d0d%2D10f5%2D4338%2Dbf8c%2D3114a964b036"
      },
      "geometry": {
        "type": "Point",
        "coordinates": [
         		-52.17277, -22.52876
        ]
      }
    },
    {
      "type": "Feature",
      "properties": {
        "name": "APS ÁLVARES MACHADO",
        "type": "APS FIXA",
        "url":"https://inssgov.sharepoint.com/sites/MinhaLog-SP/Lists/Unidades%20por%20GEX/AllItems.aspx?viewid=61898d0d%2D10f5%2D4338%2Dbf8c%2D3114a964b036"
      },
      "geometry": {
        "type": "Point",
        "coordinates": [
         			-51.47623, -22.08203
        ]
      }
    }    
  ]
}